FENGYUN 1C DEB          
1 31994U 99025CPX 17226.65386589 -.00000064  00000-0 -15167-4 0  9995
2 31994  98.6010  12.5508 0162561 298.0205  60.4595 13.94707845143825
FENGYUN 1C DEB          
1 31995U 99025CPY 17218.78128266  .00000537  00000-0  45003-3 0  9991
2 31995  98.3851 205.4624 0149642  69.8431 291.8755 13.86818799511377
FENGYUN 1C DEB          
1 31996U 99025CPZ 17227.05003654  .00000941  00000-0  11667-2 0  9992
2 31996  99.2843 324.0555 0326460 237.5459 119.3721 13.47180634498311
FENGYUN 1C DEB          
1 31997U 99025CQA 17225.59560320  .00000182  00000-0  28430-3 0  9992
2 31997 102.5075 145.9787 0308093 233.7182 123.5120 13.51240252499596
FENGYUN 1C DEB          
1 31998U 99025CQB 17227.12411220  .00006084  00000-0  46632-3 0  9999
2 31998 105.5119 201.4151 0048405 259.6346  99.9386 15.01962177542042
FENGYUN 1C DEB          
1 32086U 99025CQC 17225.20360101  .00000258  00000-0  29361-3 0  9993
2 32086  99.2598  24.3079 0325698  32.8149 329.2766 13.57669265203817
FENGYUN 1C DEB          
1 32087U 99025CQD 17226.97044377  .00002509  00000-0  37351-3 0  9992
2 32087  98.6352 285.6804 0108234  32.7446 328.0407 14.72024028530295
FENGYUN 1C DEB          
1 32088U 99025CQE 17225.80327317  .00000405  00000-0  73851-3 0  9990
2 32088 102.4116 220.8088 0437909 316.4359  40.2929 13.17137139197121
FENGYUN 1C DEB          
1 32089U 99025CQF 17224.93861805  .00000019  00000-0  33654-4 0  9998
2 32089  98.9048 268.5695 0123010  98.8962 262.6157 14.08399294517205
FENGYUN 1C DEB          
1 32090U 99025CQG 17226.46323299  .00000681  00000-0  33592-3 0  9995
2 32090  98.9990 308.3196 0068502  25.7504  36.0141 14.19686667518782
FENGYUN 1C DEB          
1 32092U 99025CQJ 17225.33208301  .00000666  00000-0  36740-3 0  9999
2 32092  98.9593 274.3315 0038392 166.4009 193.8207 14.14609699278441
FENGYUN 1C DEB          
1 32093U 99025CQK 17227.24776557  .00000189  00000-0  85538-4 0  9995
2 32093  98.7375 329.4826 0085972 262.3126  96.8287 14.31117748530617
FENGYUN 1C DEB          
1 32094U 99025CQL 17225.30670317  .00000051  00000-0  55923-4 0  9991
2 32094  98.8850 261.3242 0036063 214.3874 206.9010 14.07419282515260
FENGYUN 1C DEB          
1 32095U 99025CQM 17226.88684784  .00000062  00000-0  54705-4 0  9998
2 32095  98.9460 251.6360 0082451 111.3735 249.6260 14.13241342518289
FENGYUN 1C DEB          
1 32096U 99025CQN 17227.31354859  .00000101  00000-0  12120-3 0  9993
2 32096  99.3303 266.3861 0145079  14.8039 345.7296 13.83851052507916
FENGYUN 1C DEB          
1 32097U 99025CQP 17227.17485488  .00001344  00000-0  15220-3 0  9995
2 32097  99.0923 310.7425 0134941  77.8898 283.7393 14.82199201535977
FENGYUN 1C DEB          
1 32098U 99025CQQ 17208.88745392  .00000071  00000-0  49197-4 0  9993
2 32098  98.7631 244.3084 0204857 277.2560  80.5370 14.15883698515779
FENGYUN 1C DEB          
1 32101U 99025CQT 17226.00243901  .00000398  00000-0  33941-3 0  9992
2 32101  99.1182 139.4558 0139616 238.2676 120.4812 13.88727173508372
FENGYUN 1C DEB          
1 32102U 99025CQU 17226.51714182  .00004518  00000-0  67488-3 0  9994
2 32102  99.3296 131.4484 0129365 110.2774  10.1441 14.69826353499360
FENGYUN 1C DEB          
1 32103U 99025CQV 17227.06311491  .00002004  00000-0  37836-3 0  9994
2 32103  96.7147 166.6671 0078374 143.0871 274.1139 14.63283849542210
FENGYUN 1C DEB          
1 32104U 99025CQW 17227.17657634  .00000875  00000-0  62887-3 0  9997
2 32104  97.6667 194.8201 0337744  38.8071 323.6824 13.74716366506499
FENGYUN 1C DEB          
1 32105U 99025CQX 17226.04126508  .00001313  00000-0  17497-2 0  9998
2 32105 103.4437 314.0069 0439792 210.4111 147.0803 13.29484405191769
FENGYUN 1C DEB          
1 32106U 99025CQY 17227.41765341  .00000896  00000-0  61179-3 0  9997
2 32106 101.4886  76.3157 0156155 242.2373 116.2872 13.97865909511277
FENGYUN 1C DEB          
1 32109U 99025CRB 17223.97306811  .00000096  00000-0  46815-4 0  9993
2 32109  98.5602 138.2851 0223119 273.9119  83.6583 14.26973473214113
FENGYUN 1C DEB          
1 32110U 99025CRC 17227.23578594  .00000449  00000-0  26200-3 0  9994
2 32110  99.5043 136.0090 0035889 231.3270 283.8094 14.13849902518097
FENGYUN 1C DEB          
1 32111U 99025CRD 17227.88183019  .00000057  00000-0  37114-4 0  9992
2 32111  98.6434 257.1618 0125776 152.9393 333.1242 14.28373682528595
FENGYUN 1C DEB          
1 32112U 99025CRE 17225.60911575  .00003578  00000-0  38322-3 0  9999
2 32112  98.6223   2.4765 0133824 269.6898  88.8978 14.83066948535891
FENGYUN 1C DEB          
1 32113U 99025CRF 17226.83451161  .00000243  00000-0  18544-3 0  9996
2 32113  99.3438 253.4569 0252528 177.9437 182.2820 13.88575900509524
FENGYUN 1C DEB          
1 32114U 99025CRG 17225.94448426  .00000556  00000-0  18093-3 0  9994
2 32114  99.9206 123.8763 0082001 181.3188 178.7793 14.41819163216693
FENGYUN 1C DEB          
1 32115U 99025CRH 17219.32139588  .00000864  00000-0  43516-3 0  9996
2 32115  99.0058 244.0499 0024559  71.9885 288.3963 14.18940756517434
FENGYUN 1C DEB          
1 32116U 99025CRJ 17226.41637007  .00002346  00000-0  11588-3 0  9995
2 32116  99.5377 289.6062 0149831 190.2643 169.5512 15.10080679549137
FENGYUN 1C DEB          
1 32117U 99025CRK 17226.37161359  .00000324  00000-0  19371-3 0  9995
2 32117  98.8865 281.0679 0030673 151.1127 209.1751 14.13856691517226
FENGYUN 1C DEB          
1 32118U 99025CRL 17225.52348459  .00001927  00000-0  45697-3 0  9990
2 32118 102.4065 126.5657 0036990 114.6585   9.1472 14.55681829539463
FENGYUN 1C DEB          
1 32119U 99025CRM 17226.67540347  .00000006  00000-0  40228-4 0  9991
2 32119  99.8578 173.7704 0092240 277.2934  81.7749 13.96599231512095
FENGYUN 1C DEB          
1 32120U 99025CRN 17226.04994304  .00004226  00000-0  36739-3 0  9999
2 32120  98.8719 174.3534 0061151  97.9615 325.6434 14.96209956537665
FENGYUN 1C DEB          
1 32123U 99025CRR 17227.00728274  .00000070  00000-0  25331-4 0  9990
2 32123  98.8590 147.2453 0178084 173.5003 248.2534 14.54295463533704
FENGYUN 1C DEB          
1 32124U 99025CRS 17226.07694704  .00005108  00000-0  27380-3 0  9999
2 32124  98.9960 325.5503 0087582 215.8304 143.7028 15.12303156221884
FENGYUN 1C DEB          
1 32125U 99025CRT 17225.61910618  .00000930  00000-0  25104-3 0  9994
2 32125  99.0477 358.0069 0296229 241.2858 115.8257 14.27777053530372
FENGYUN 1C DEB          
1 32126U 99025CRU 17225.44515634 -.00000093  00000-0 -65322-4 0  9994
2 32126  99.1394 299.0419 0293593  87.6001 275.8713 13.51497855205567
FENGYUN 1C DEB          
1 32127U 99025CRV 17227.53038877  .00000406  00000-0  51518-3 0  9993
2 32127  99.2730 339.2259 0305503 155.1816 206.4371 13.50931193493568
FENGYUN 1C DEB          
1 32128U 99025CRW 17225.29072992  .00000240  00000-0  12136-3 0  9990
2 32128  99.4005 248.7814 0419558 176.5669 183.8531 13.87814436207194
FENGYUN 1C DEB          
1 32129U 99025CRX 17226.07985539  .00000430  00000-0  28096-3 0  9991
2 32129  99.1583 265.3572 0093920 297.6775 115.6637 14.05715818513086
FENGYUN 1C DEB          
1 32130U 99025CRY 17226.48506470  .00000188  00000-0  85609-4 0  9995
2 32130  98.6891 319.5364 0090458 261.2639  97.8290 14.30652750526829
FENGYUN 1C DEB          
1 32132U 99025CSA 17225.92701968  .00000508  00000-0  20856-3 0  9992
2 32132  98.7097 274.2769 0103171 275.6719  83.2705 14.28534581271950
FENGYUN 1C DEB          
1 32133U 99025CSB 17226.99488557  .00000026  00000-0  34784-4 0  9998
2 32133  98.7602 296.7058 0036081 209.4791 150.4349 14.16190782520117
FENGYUN 1C DEB          
1 32134U 99025CSC 17227.56118421  .00000141  00000-0  70582-4 0  9997
2 32134  98.8482 265.0610 0285308 331.5670 186.4917 14.12715705524016
FENGYUN 1C DEB          
1 32136U 99025CSE 17225.95021209  .00000202  00000-0  90666-4 0  9990
2 32136  98.5488 285.0664 0073391 211.8392 147.8344 14.30965812215197
FENGYUN 1C DEB          
1 32137U 99025CSF 17227.32768837  .00000486  00000-0  87446-4 0  9995
2 32137  98.6425 262.7018 0289207  22.4641 338.8920 14.47996416530074
FENGYUN 1C DEB          
1 32138U 99025CSG 17226.43006288  .00000526  00000-0  26752-3 0  9999
2 32138  98.8957 304.4767 0024874 101.0347 259.3628 14.20004240212565
FENGYUN 1C DEB          
1 32139U 99025CSH 17225.93196232  .00000316  00000-0  10752-3 0  9993
2 32139  98.6948 277.3567 0221475  33.8862 327.6247 14.30613062213959
FENGYUN 1C DEB          
1 32141U 99025CSK 17226.41144081 -.00000105  00000-0 -41494-4 0  9991
2 32141  99.0165 281.8101 0066689  29.1427 331.3433 13.99425194523562
FENGYUN 1C DEB          
1 32143U 99025CSM 17225.92105098  .00000017  00000-0  29340-4 0  9999
2 32143  98.6981 272.9226 0105884 221.0773 138.2394 14.15922001528576
FENGYUN 1C DEB          
1 32146U 99025CSQ 17224.98842425  .00000880  00000-0  39546-3 0  9995
2 32146  98.9072 292.3570 0123868 295.1574  63.6797 14.21010505519116
FENGYUN 1C DEB          
1 32148U 99025CSS 17227.02060684  .00000553  00000-0  63934-4 0  9990
2 32148  99.0704 304.3120 0167225 352.4088   7.4593 14.81468362541376
FENGYUN 1C DEB          
1 32150U 99025CSU 17224.94573197  .00000034  00000-0  19333-4 0  9997
2 32150  99.1827 265.8133 0184735 246.2093 111.9636 14.54826507535216
FENGYUN 1C DEB          
1 32151U 99025CSV 17224.03496676  .00002704  00000-0  39622-3 0  9992
2 32151  98.9808 152.0097 0048314 327.5839  88.0987 14.75833397535123
FENGYUN 1C DEB          
1 32152U 99025CSW 17227.00904189  .00000456  00000-0  17294-3 0  9999
2 32152  98.6693 309.1752 0077631 251.6543 107.6186 14.34244329536428
FENGYUN 1C DEB          
1 32153U 99025CSX 17227.50773443  .00000028  00000-0  19061-4 0  9992
2 32153  98.5444 327.4315 0224549 354.5195   5.3541 14.42666110533250
FENGYUN 1C DEB          
1 32154U 99025CSY 17226.96875417  .00004358  00000-0  37881-3 0  9995
2 32154  99.0515 224.1382 0056943 256.3766 103.1105 14.96421683222405
FENGYUN 1C DEB          
1 32155U 99025CSZ 17213.61043862  .00000111  00000-0  62832-4 0  9993
2 32155  99.0310 357.0235 0077454  80.1880 280.8034 14.26908557266069
